{"epoch":1784848540,"count":18314,"objects":[{"id":"40958","name":"LQSAT","type":"PAYLOAD","l1":"1 40958U 15057A   26204.86093920  .00000266  00000-0  44668-4 0  9991","l2":"2 40958  97.6707 196.4246 0017718 148.4741 211.7536 14.76819474580727"},{"id":"40959","name":"LINGQIAO VIDEO A","type":"PAYLOAD","l1":"1 40959U 15057B   26204.86657419  .00000499  00000-0  76689-4 0  9997","l2":"2 40959  97.6647 197.8632 0017509 145.4890 214.7462 14.77433470580826"},{"id":"40960","name":"LINGQIAO VIDEO B","type":"PAYLOAD","l1":"1 40960U 15057C   26204.90834110  .00000688  00000-0  10294-3 0  9998","l2":"2 40960  97.6612 199.0565 0017660 145.3814 214.8551 14.77540642580877"},{"id":"40961","name":"JILIN 1","type":"PAYLOAD","l1":"1 40961U 15057D   26204.83766028  .00000722  00000-0  10599-3 0  9990","l2":"2 40961  97.6525 202.3884 0017942 139.8929 220.3610 14.78211475581027"},{"id":"40967","name":"FOX-1","type":"PAYLOAD","l1":"1 40967U 15058D   26204.30272102  .00003792  00000-0  33669-3 0  9997","l2":"2 40967  64.7741 166.7324 0133071  42.7370 318.3997 14.91129767118955"},{"id":"40968","name":"BISONSAT","type":"PAYLOAD","l1":"1 40968U 15058E   26204.84479162  .00005719  00000-0  44923-3 0  9998","l2":"2 40968  64.7745 144.0931 0121759  38.8855 322.0939 14.96158782122145"},{"id":"41105","name":"ELEKTRO-L 2","type":"PAYLOAD","l1":"1 41105U 15074A   26204.82334419 -.00000118  00000-0  00000+0 0  9996","l2":"2 41105   6.7838  70.0693 0000590 232.5473 280.8579  1.00272709 38873"},{"id":"41173","name":"DAMPE","type":"PAYLOAD","l1":"1 41173U 15078A   26204.83875920  .00001072  00000-0  38512-4 0  9996","l2":"2 41173  97.4576 210.4893 0010589 312.5862  47.4485 15.30869119590158"},{"id":"41179","name":"ORBCOMM FM 114","type":"PAYLOAD","l1":"1 41179U 15081A   26204.13916460  .00000355  00000-0  11126-3 0  9998","l2":"2 41179  47.0031 192.0230 0002611 339.6474  20.4307 14.58893183563002"},{"id":"41182","name":"ORBCOMM FM 110","type":"PAYLOAD","l1":"1 41182U 15081D   26204.33230192  .00000700  00000-0  18419-3 0  9991","l2":"2 41182  47.0004 190.5313 0003835 254.1022 105.9441 14.58928581562907"},{"id":"41184","name":"ORBCOMM FM 112","type":"PAYLOAD","l1":"1 41184U 15081F   26204.71304066  .00000570  00000-0  15651-3 0  9997","l2":"2 41184  46.9990  97.5188 0003161   6.5526 353.5401 14.58948415564285"},{"id":"41185","name":"ORBCOMM FM 113","type":"PAYLOAD","l1":"1 41185U 15081G   26204.82794654  .00000340  00000-0  10813-3 0  9996","l2":"2 41185  47.0008  97.3714 0001705 357.2246   2.8630 14.58888890564286"},{"id":"41187","name":"ORBCOMM FM 108","type":"PAYLOAD","l1":"1 41187U 15081J   26204.85825699  .00000547  00000-0  15167-3 0  9991","l2":"2 41187  47.0062   8.8101 0002077 357.0507   3.0366 14.58919595565430"},{"id":"41188","name":"ORBCOMM FM 117","type":"PAYLOAD","l1":"1 41188U 15081K   26204.82406740  .00000536  00000-0  14958-3 0  9996","l2":"2 41188  47.0024   7.5969 0002458   5.7360 354.3554 14.58906500565471"},{"id":"41189","name":"ORBCOMM FM 116","type":"PAYLOAD","l1":"1 41189U 15081L   26204.73566406  .00000485  00000-0  13859-3 0  9995","l2":"2 41189  47.0023  97.8045 0001772 252.4319 107.6373 14.58915425564272"},{"id":"41338","name":"CHUBUSAT 2","type":"PAYLOAD","l1":"1 41338U 16012B   26204.82690317  .00005968  00000-0  25555-3 0  9992","l2":"2 41338  30.9978  80.8754 0008379  91.5843 268.5758 15.21210095574009"},{"id":"41339","name":"CHUBUSAT 3","type":"PAYLOAD","l1":"1 41339U 16012C   26204.87833774  .00005533  00000-0  25378-3 0  9995","l2":"2 41339  31.0046  91.0093 0008845  77.6963 282.4667 15.18827600573784"},{"id":"41556","name":"ZY 3 2","type":"PAYLOAD","l1":"1 41556U 16033A   26204.89165590  .00006391  00000-0  28915-3 0  9998","l2":"2 41556  97.3822 279.9589 0013635 158.0300 202.1523 15.21169092563564"},{"id":"41599","name":"CARTOSAT 2C","type":"PAYLOAD","l1":"1 41599U 16040A   26204.48330542  .00004010  00000-0  19304-3 0  9997","l2":"2 41599  97.4464 263.9576 0008686  19.1280 341.0279 15.19310130559224"},{"id":"41603","name":"LAPAN A3","type":"PAYLOAD","l1":"1 41603U 16040E   26204.86989434  .00003581  00000-0  11348-3 0  9997","l2":"2 41603  97.1510 199.8193 0008492 237.5813 122.4609 15.33319162560437"},{"id":"41727","name":"GAOFEN 3","type":"PAYLOAD","l1":"1 41727U 16049A   26204.85427579 -.00000029  00000-0  42950-5 0  9999","l2":"2 41727  98.4029 212.0876 0001777  82.3084 277.8307 14.42219020523939"},{"id":"41783","name":"PRATHAM","type":"PAYLOAD","l1":"1 41783U 16059A   26204.45661169  .00000640  00000-0  12104-3 0  9997","l2":"2 41783  97.8344 199.7244 0032708 102.5476 257.9391 14.67234594524834"},{"id":"41789","name":"ALSAT 1N","type":"PAYLOAD","l1":"1 41789U 16059G   26204.82111527  .00000674  00000-0  12134-3 0  9992","l2":"2 41789  97.8025 206.5432 0027496  71.6126 288.8067 14.69358743525387"},{"id":"41857","name":"YUNHAI 1","type":"PAYLOAD","l1":"1 41857U 16068A   26204.83353333  .00000229  00000-0  10032-3 0  9993","l2":"2 41857  98.5859 215.5016 0002589 318.7561  41.3427 14.32726973507070"},{"id":"41877","name":"RESOURCESAT 2A","type":"PAYLOAD","l1":"1 41877U 16074A   26204.81042074  .00000095  00000-0  63346-4 0  9995","l2":"2 41877  98.7512 278.0125 0001870   7.5055 352.6150 14.21610569499508"},{"id":"41898","name":"TANSAT","type":"PAYLOAD","l1":"1 41898U 16081A   26204.84624171  .00000297  00000-0  72273-4 0  9996","l2":"2 41898  98.5385 206.1900 0019980 192.2050 167.8668 14.59975740509977"},{"id":"41914","name":"JILIN-1-03","type":"PAYLOAD","l1":"1 41914U 17002B   26204.82025551  .00013946  00000-0  32428-3 0  9996","l2":"2 41914  97.1959 211.4103 0007234  56.0116 304.1818 15.42406201527507"},{"id":"41948","name":"CARTOSAT 2D","type":"PAYLOAD","l1":"1 41948U 17008A   26204.44911100  .00003968  00000-0  19096-3 0  9990","l2":"2 41948  97.4087 263.0730 0006506 117.0345 243.1554 15.19329256523087"},{"id":"42767","name":"CARTOSAT 2E","type":"PAYLOAD","l1":"1 42767U 17036C   26204.59876079  .00004931  00000-0  23677-3 0  9993","l2":"2 42767  97.4256 263.7967 0004182 159.7710 200.3691 15.19302949503671"},{"id":"42794","name":"DSAT","type":"PAYLOAD","l1":"1 42794U 17036AF  26203.18321168  .00008435  00000-0  38892-3 0  9999","l2":"2 42794  97.5582 182.0157 0082229  41.5190 319.2249 15.17476753496163"}]}